*******************************************************************************
Ephemeris / WWW_USER Thu Dec  5 18:34:43 2024 Pasadena, USA      / Horizons    
*******************************************************************************
Target body name: Titan (606)                     {source: sat441l}
Center body name: Earth (399)                     {source: DE441}
Center-site name: Mauna Kea
*******************************************************************************
Start time      : A.D. 2018-Oct-15 04:08:00.0000 UT      
Stop  time      : A.D. 2018-Oct-15 16:07:00.0000 UT      
Step-size       : 1 minutes
*******************************************************************************
Target pole/equ : IAU_TITAN                       {West-longitude positive}
Target radii    : 2575.15, 2574.78, 2574.47 km    {Equator_a, b, pole_c}       
Center geodetic : 204.5278, 19.8260847, 4.21024   {E-lon(deg),Lat(deg),Alt(km)}
Center cylindric: 204.5278, 6006.35451, 2151.0229 {E-lon(deg),Dxy(km),Dz(km)}
Center pole/equ : ITRF93                          {East-longitude positive}
Center radii    : 6378.137, 6378.137, 6356.752 km {Equator_a, b, pole_c}       
Target primary  : Saturn
Vis. interferer : MOON (R_eq= 1737.400) km        {source: DE441}
Rel. light bend : Sun                             {source: DE441}
Rel. lght bnd GM: 1.3271E+11 km^3/s^2                                          
Atmos refraction: NO (AIRLESS)
RA format       : HMS
Time format     : CAL 
Calendar mode   : Mixed Julian/Gregorian
RTS-only print  : NO       
EOP file        : eop.241205.p250303                                           
EOP coverage    : DATA-BASED 1962-JAN-20 TO 2024-DEC-05. PREDICTS-> 2025-MAR-02
Units conversion: 1 au= 149597870.700 km, c= 299792.458 km/s, 1 day= 86400.0 s 
Table cut-offs 1: Elevation (-90.0deg=NO ),Airmass (>38.000=NO), Daylight (YES)
Table cut-offs 2: Solar elongation (  0.0,180.0=NO ),Local Hour Angle( 0.0=NO )
Table cut-offs 3: RA/DEC angular rate (     0.0=NO )                           
*******************************************************************************
 Date__(UT)__HR:MN     R.A._________(ICRF)_________DEC
******************************************************
$$SOE
 2018-Oct-15 06:29  m  18 15 03.642752 -22 45 30.12513
 2018-Oct-15 06:30  m  18 15 03.656526 -22 45 30.12220
 2018-Oct-15 06:31  m  18 15 03.670302 -22 45 30.11927
 2018-Oct-15 06:32  m  18 15 03.684079 -22 45 30.11634
 2018-Oct-15 06:33  m  18 15 03.697858 -22 45 30.11341
 2018-Oct-15 06:34  m  18 15 03.711638 -22 45 30.11049
 2018-Oct-15 06:35  m  18 15 03.725419 -22 45 30.10756
 2018-Oct-15 06:36  m  18 15 03.739202 -22 45 30.10464
 2018-Oct-15 06:37  m  18 15 03.752986 -22 45 30.10172
 2018-Oct-15 06:38  m  18 15 03.766771 -22 45 30.09880
 2018-Oct-15 06:39  m  18 15 03.780558 -22 45 30.09588
 2018-Oct-15 06:40  m  18 15 03.794346 -22 45 30.09297
 2018-Oct-15 06:41  m  18 15 03.808136 -22 45 30.09005
 2018-Oct-15 06:42  m  18 15 03.821927 -22 45 30.08714
 2018-Oct-15 06:43  m  18 15 03.835719 -22 45 30.08423
 2018-Oct-15 06:44  m  18 15 03.849513 -22 45 30.08132
 2018-Oct-15 06:45  m  18 15 03.863308 -22 45 30.07842
 2018-Oct-15 06:46  m  18 15 03.877105 -22 45 30.07551
 2018-Oct-15 06:47  m  18 15 03.890903 -22 45 30.07261
 2018-Oct-15 06:48  m  18 15 03.904703 -22 45 30.06971
 2018-Oct-15 06:49  m  18 15 03.918503 -22 45 30.06681
 2018-Oct-15 06:50  m  18 15 03.932306 -22 45 30.06391
 2018-Oct-15 06:51  m  18 15 03.946109 -22 45 30.06102
 2018-Oct-15 06:52  m  18 15 03.959915 -22 45 30.05813
 2018-Oct-15 06:53  m  18 15 03.973721 -22 45 30.05524
 2018-Oct-15 06:54  m  18 15 03.987529 -22 45 30.05235
 2018-Oct-15 06:55  m  18 15 04.001338 -22 45 30.04946
 2018-Oct-15 06:56  m  18 15 04.015149 -22 45 30.04658
 2018-Oct-15 06:57  m  18 15 04.028961 -22 45 30.04370
 2018-Oct-15 06:58  m  18 15 04.042775 -22 45 30.04082
 2018-Oct-15 06:59  m  18 15 04.056590 -22 45 30.03794
 2018-Oct-15 07:00  m  18 15 04.070407 -22 45 30.03506
 2018-Oct-15 07:01  m  18 15 04.084225 -22 45 30.03219
 2018-Oct-15 07:02  m  18 15 04.098044 -22 45 30.02932
 2018-Oct-15 07:03  m  18 15 04.111865 -22 45 30.02645
 2018-Oct-15 07:04  m  18 15 04.125688 -22 45 30.02358
 2018-Oct-15 07:05  m  18 15 04.139511 -22 45 30.02072
 2018-Oct-15 07:06  m  18 15 04.153337 -22 45 30.01786
 2018-Oct-15 07:07  m  18 15 04.167163 -22 45 30.01500
 2018-Oct-15 07:08  m  18 15 04.180991 -22 45 30.01214
 2018-Oct-15 07:09  m  18 15 04.194821 -22 45 30.00929
 2018-Oct-15 07:10  m  18 15 04.208652 -22 45 30.00643
 2018-Oct-15 07:11  m  18 15 04.222485 -22 45 30.00358
 2018-Oct-15 07:12  m  18 15 04.236319 -22 45 30.00074
 2018-Oct-15 07:13  m  18 15 04.250154 -22 45 29.99789
 2018-Oct-15 07:14  m  18 15 04.263991 -22 45 29.99505
 2018-Oct-15 07:15  m  18 15 04.277829 -22 45 29.99221
 2018-Oct-15 07:16  m  18 15 04.291669 -22 45 29.98937
 2018-Oct-15 07:17  m  18 15 04.305511 -22 45 29.98654
 2018-Oct-15 07:18  m  18 15 04.319353 -22 45 29.98371
 2018-Oct-15 07:19  m  18 15 04.333198 -22 45 29.98088
 2018-Oct-15 07:20  m  18 15 04.347044 -22 45 29.97805
 2018-Oct-15 07:21  m  18 15 04.360891 -22 45 29.97523
 2018-Oct-15 07:22  m  18 15 04.374740 -22 45 29.97241
 2018-Oct-15 07:23  m  18 15 04.388590 -22 45 29.96959
 2018-Oct-15 07:24  m  18 15 04.402442 -22 45 29.96677
 2018-Oct-15 07:25  m  18 15 04.416295 -22 45 29.96396
 2018-Oct-15 07:26  m  18 15 04.430149 -22 45 29.96115
 2018-Oct-15 07:27  m  18 15 04.444006 -22 45 29.95834
 2018-Oct-15 07:28  m  18 15 04.457863 -22 45 29.95554
 2018-Oct-15 07:29  m  18 15 04.471723 -22 45 29.95274
 2018-Oct-15 07:30  m  18 15 04.485583 -22 45 29.94994
 2018-Oct-15 07:31  m  18 15 04.499445 -22 45 29.94714
 2018-Oct-15 07:32  m  18 15 04.513309 -22 45 29.94435
 2018-Oct-15 07:33  m  18 15 04.527174 -22 45 29.94156
 2018-Oct-15 07:34  m  18 15 04.541041 -22 45 29.93877
 2018-Oct-15 07:35  m  18 15 04.554909 -22 45 29.93599
 2018-Oct-15 07:36  m  18 15 04.568779 -22 45 29.93321
 2018-Oct-15 07:37  m  18 15 04.582650 -22 45 29.93043
 2018-Oct-15 07:38  m  18 15 04.596523 -22 45 29.92766
 2018-Oct-15 07:39  m  18 15 04.610397 -22 45 29.92489
 2018-Oct-15 07:40  m  18 15 04.624273 -22 45 29.92212
 2018-Oct-15 07:41  m  18 15 04.638150 -22 45 29.91935
 2018-Oct-15 07:42  m  18 15 04.652029 -22 45 29.91659
 2018-Oct-15 07:43  m  18 15 04.665909 -22 45 29.91383
 2018-Oct-15 07:44  m  18 15 04.679791 -22 45 29.91108
 2018-Oct-15 07:45  m  18 15 04.693674 -22 45 29.90832
 2018-Oct-15 07:46  m  18 15 04.707559 -22 45 29.90558
 2018-Oct-15 07:47  m  18 15 04.721446 -22 45 29.90283
 2018-Oct-15 07:48  m  18 15 04.735334 -22 45 29.90009
 2018-Oct-15 07:49  m  18 15 04.749223 -22 45 29.89735
 2018-Oct-15 07:50  m  18 15 04.763114 -22 45 29.89462
 2018-Oct-15 07:51  m  18 15 04.777007 -22 45 29.89188
 2018-Oct-15 07:52  m  18 15 04.790901 -22 45 29.88916
 2018-Oct-15 07:53  m  18 15 04.804796 -22 45 29.88643
 2018-Oct-15 07:54  m  18 15 04.818693 -22 45 29.88371
 2018-Oct-15 07:55  m  18 15 04.832592 -22 45 29.88099
 2018-Oct-15 07:56  m  18 15 04.846492 -22 45 29.87828
 2018-Oct-15 07:57  m  18 15 04.860394 -22 45 29.87557
 2018-Oct-15 07:58  m  18 15 04.874297 -22 45 29.87286
 2018-Oct-15 07:59  m  18 15 04.888202 -22 45 29.87016
 2018-Oct-15 08:00  m  18 15 04.902108 -22 45 29.86746
 2018-Oct-15 08:01  m  18 15 04.916016 -22 45 29.86476
 2018-Oct-15 08:02  m  18 15 04.929925 -22 45 29.86207
 2018-Oct-15 08:03  m  18 15 04.943836 -22 45 29.85938
 2018-Oct-15 08:04  m  18 15 04.957749 -22 45 29.85669
 2018-Oct-15 08:05  m  18 15 04.971663 -22 45 29.85401
 2018-Oct-15 08:06  m  18 15 04.985579 -22 45 29.85134
 2018-Oct-15 08:07  m  18 15 04.999496 -22 45 29.84866
 2018-Oct-15 08:08  m  18 15 05.013414 -22 45 29.84599
 2018-Oct-15 08:09  m  18 15 05.027335 -22 45 29.84333
 2018-Oct-15 08:10  m  18 15 05.041257 -22 45 29.84066
 2018-Oct-15 08:11  m  18 15 05.055180 -22 45 29.83801
 2018-Oct-15 08:12  m  18 15 05.069105 -22 45 29.83535
 2018-Oct-15 08:13  m  18 15 05.083031 -22 45 29.83270
 2018-Oct-15 08:14  m  18 15 05.096959 -22 45 29.83006
 2018-Oct-15 08:15  m  18 15 05.110889 -22 45 29.82741
 2018-Oct-15 08:16  m  18 15 05.124820 -22 45 29.82478
 2018-Oct-15 08:17  m  18 15 05.138753 -22 45 29.82214
 2018-Oct-15 08:18  m  18 15 05.152687 -22 45 29.81951
 2018-Oct-15 08:19  m  18 15 05.166623 -22 45 29.81689
 2018-Oct-15 08:20  m  18 15 05.180560 -22 45 29.81427
 2018-Oct-15 08:21  m  18 15 05.194499 -22 45 29.81165
 2018-Oct-15 08:22  m  18 15 05.208439 -22 45 29.80904
 2018-Oct-15 08:23  m  18 15 05.222381 -22 45 29.80643
 2018-Oct-15 08:24  m  18 15 05.236325 -22 45 29.80382
 2018-Oct-15 08:25  m  18 15 05.250270 -22 45 29.80122
 2018-Oct-15 08:26  m  18 15 05.264217 -22 45 29.79863
 2018-Oct-15 08:27  m  18 15 05.278165 -22 45 29.79604
 2018-Oct-15 08:28  m  18 15 05.292115 -22 45 29.79345
 2018-Oct-15 08:29  m  18 15 05.306066 -22 45 29.79087
 2018-Oct-15 08:30  m  18 15 05.320019 -22 45 29.78829
 2018-Oct-15 08:31  m  18 15 05.333974 -22 45 29.78571
 2018-Oct-15 08:32  m  18 15 05.347930 -22 45 29.78314
 2018-Oct-15 08:33  m  18 15 05.361888 -22 45 29.78058
 2018-Oct-15 08:34  m  18 15 05.375847 -22 45 29.77802
 2018-Oct-15 08:35  m  18 15 05.389808 -22 45 29.77546
 2018-Oct-15 08:36  m  18 15 05.403770 -22 45 29.77291
 2018-Oct-15 08:37  m  18 15 05.417734 -22 45 29.77037
 2018-Oct-15 08:38  m  18 15 05.431699 -22 45 29.76782
 2018-Oct-15 08:39  m  18 15 05.445667 -22 45 29.76529
 2018-Oct-15 08:40  m  18 15 05.459635 -22 45 29.76275
 2018-Oct-15 08:41  s  18 15 05.473605 -22 45 29.76023
 2018-Oct-15 08:42  m  18 15 05.487577 -22 45 29.75770
 2018-Oct-15 08:43  m  18 15 05.501550 -22 45 29.75518
 2018-Oct-15 08:44  m  18 15 05.515525 -22 45 29.75267
 2018-Oct-15 08:45  m  18 15 05.529502 -22 45 29.75016
 2018-Oct-15 08:46  m  18 15 05.543480 -22 45 29.74766
 2018-Oct-15 08:47  m  18 15 05.557460 -22 45 29.74516
 2018-Oct-15 08:48  m  18 15 05.571441 -22 45 29.74266
 2018-Oct-15 08:49  m  18 15 05.585423 -22 45 29.74018
